{"type": "FeatureCollection", "features": [ {"type": "Feature", "properties": {"norad_id": 66818, "name": "STARLINK-35994", "group": "last-30-days", "lat": 29.07056358789623, "lon": -120.20159050235873, "alt_km": 380.56977292624015, "timestamp": "2025-12-20T18:51:30.447261+00:00", "meta": {"OBJECT_NAME": "STARLINK-35994", "OBJECT_ID": "2025-278AD", "EPOCH": "2025-12-20T14:00:03.000384", "MEAN_MOTION": 15.62066805, "ECCENTRICITY": 0.00016517, "INCLINATION": 42.9994, "RA_OF_ASC_NODE": 204.376, "ARG_OF_PERICENTER": 253.5398, "MEAN_ANOMALY": 92.717, "EPHEMERIS_TYPE": 0, "CLASSIFICATION_TYPE": "U", "NORAD_CAT_ID": 66818, "ELEMENT_SET_NO": 999, "REV_AT_EPOCH": 421, "BSTAR": -0.024382393, "MEAN_MOTION_DOT": -0.0193621, "MEAN_MOTION_DDOT": 0}, "tle": {"line1": "1 66818U 25278AD  25354.58336806 -.01936210  00000+0 -24382-1 0  9994", "line2": "2 66818  42.9994 204.3760 0001651 253.5398  92.7170 15.62066805  4210"}}, "geometry": {"type": "Point", "coordinates": [-120.20159050235873, 29.07056358789623]}}, {"type": "Feature", "properties": {"norad_id": 66819, "name": "STARLINK-35989", "group": "last-30-days", "lat": 31.11782154764783, "lon": -116.46022386208121, "alt_km": 380.2718339968633, "timestamp": "2025-12-20T18:51:30.447271+00:00", "meta": {"OBJECT_NAME": "STARLINK-35989", "OBJECT_ID": "2025-278AE", "EPOCH": "2025-12-20T14:00:03.000384", "MEAN_MOTION": 15.62067173, "ECCENTRICITY": 0.00016491, "INCLINATION": 42.9995, "RA_OF_ASC_NODE": 204.3657, "ARG_OF_PERICENTER": 253.641, "MEAN_ANOMALY": 96.4498, "EPHEMERIS_TYPE": 0, "CLASSIFICATION_TYPE": "U", "NORAD_CAT_ID": 66819, "ELEMENT_SET_NO": 999, "REV_AT_EPOCH": 421, "BSTAR": -0.024383582, "MEAN_MOTION_DOT": -0.01936316, "MEAN_MOTION_DDOT": 0}, "tle": {"line1": "1 66819U 25278AE  25354.58336806 -.01936316  00000+0 -24384-1 0  9994", "line2": "2 66819  42.9995 204.3657 0001649 253.6410  96.4498 15.62067173  4213"}}, "geometry": {"type": "Point", "coordinates": [-116.46022386208121, 31.11782154764783]}}, {"type": "Feature", "properties": {"norad_id": 66820, "name": "KOMPSAT-7", "group": "last-30-days", "lat": -22.238348828944833, "lon": 117.35748561889297, "alt_km": 566.0968891280727, "timestamp": "2025-12-20T18:51:30.447283+00:00", "meta": {"OBJECT_NAME": "KOMPSAT-7", "OBJECT_ID": "2025-279A", "EPOCH": "2025-12-15T00:17:19.244256", "MEAN_MOTION": 15.0015594, "ECCENTRICITY": 0.00093948, "INCLINATION": 97.641, "RA_OF_ASC_NODE": 294.8339, "ARG_OF_PERICENTER": 252.0315, "MEAN_ANOMALY": 107.9885, "EPHEMERIS_TYPE": 0, "CLASSIFICATION_TYPE": "U", "NORAD_CAT_ID": 66820, "ELEMENT_SET_NO": 999, "REV_AT_EPOCH": 199, "BSTAR": 0.00025788518, "MEAN_MOTION_DOT": 3.163e-05, "MEAN_MOTION_DDOT": 0}, "tle": {"line1": "1 66820U 25279A   25349.01202829  .00003163  00000+0  25789-3 0  9990", "line2": "2 66820  97.6410 294.8339 0009394 252.0315 107.9885 15.00155940  1999"}}, "geometry": {"type": "Point", "coordinates": [117.35748561889297, -22.238348828944833]}}, {"type": "Feature", "properties": {"norad_id": 66821, "name": "STARLINK-35966", "group": "last-30-days", "lat": -33.68315449020618, "lon": 162.32877779442566, "alt_km": 413.7411022109327, "timestamp": "2025-12-20T18:51:30.447293+00:00", "meta": {"OBJECT_NAME": "STARLINK-35966", "OBJECT_ID": "2025-280A", "EPOCH": "2025-12-20T14:00:03.000384", "MEAN_MOTION": 15.52508069, "ECCENTRICITY": 0.00033705, "INCLINATION": 69.9997, "RA_OF_ASC_NODE": 176.9325, "ARG_OF_PERICENTER": 267.8089, "MEAN_ANOMALY": 5.1942, "EPHEMERIS_TYPE": 0, "CLASSIFICATION_TYPE": "U", "NORAD_CAT_ID": 66821, "ELEMENT_SET_NO": 999, "REV_AT_EPOCH": 415, "BSTAR": 0.00050800789, "MEAN_MOTION_DOT": 0.00031196, "MEAN_MOTION_DDOT": 0}, "tle": {"line1": "1 66821U 25280A   25354.58336806  .00031196  00000+0  50801-3 0  9994", "line2": "2 66821  69.9997 176.9325 0003370 267.8089   5.1942 15.52508069  4152"}}, "geometry": {"type": "Point", "coordinates": [162.32877779442566, -33.68315449020618]}}, {"type": "Feature", "properties": {"norad_id": 66822, "name": "STARLINK-35958", "group": "last-30-days", "lat": -31.93495531583278, "lon": 163.2556996287122, "alt_km": 413.8348287099434, "timestamp": "2025-12-20T18:51:30.447303+00:00", "meta": {"OBJECT_NAME": "STARLINK-35958", "OBJECT_ID": "2025-280B", "EPOCH": "2025-12-20T14:00:03.000384", "MEAN_MOTION": 15.52513093, "ECCENTRICITY": 0.00033183, "INCLINATION": 69.9997, "RA_OF_ASC_NODE": 176.9319, "ARG_OF_PERICENTER": 264.4788, "MEAN_ANOMALY": 10.4374, "EPHEMERIS_TYPE": 0, "CLASSIFICATION_TYPE": "U", "NORAD_CAT_ID": 66822, "ELEMENT_SET_NO": 999, "REV_AT_EPOCH": 415, "BSTAR": 0.00031045592, "MEAN_MOTION_DOT": 0.00018973, "MEAN_MOTION_DDOT": 0}, "tle": {"line1": "1 66822U 25280B   25354.58336806  .00018973  00000+0  31046-3 0  9993", "line2": "2 66822  69.9997 176.9319 0003318 264.4788  10.4374 15.52513093  4158"}}, "geometry": {"type": "Point", "coordinates": [163.2556996287122, -31.93495531583278]}}, {"type": "Feature", "properties": {"norad_id": 66823, "name": "STARLINK-35957", "group": "last-30-days", "lat": -30.180190799255104, "lon": 164.1459401853314, "alt_km": 413.7073125681509, "timestamp": "2025-12-20T18:51:30.447313+00:00", "meta": {"OBJECT_NAME": "STARLINK-35957", "OBJECT_ID": "2025-280C", "EPOCH": "2025-12-20T14:00:03.000384", "MEAN_MOTION": 15.52511979, "ECCENTRICITY": 0.0003134, "INCLINATION": 69.9998, "RA_OF_ASC_NODE": 176.9292, "ARG_OF_PERICENTER": 268.8749, "MEAN_ANOMALY": 7.9608, "EPHEMERIS_TYPE": 0, "CLASSIFICATION_TYPE": "U", "NORAD_CAT_ID": 66823, "ELEMENT_SET_NO": 999, "REV_AT_EPOCH": 415, "BSTAR": 0.00032895494, "MEAN_MOTION_DOT": 0.00020116, "MEAN_MOTION_DDOT": 0}, "tle": {"line1": "1 66823U 25280C   25354.58336806  .00020116  00000+0  32895-3 0  9999", "line2": "2 66823  69.9998 176.9292 0003134 268.8749   7.9608 15.52511979  4153"}}, "geometry": {"type": "Point", "coordinates": [164.1459401853314, -30.180190799255104]}}, {"type": "Feature", "properties": {"norad_id": 66824, "name": "STARLINK-35896", "group": "last-30-days", "lat": -28.41943259617002, "lon": 165.00547094456266, "alt_km": 413.75933698688004, "timestamp": "2025-12-20T18:51:30.447323+00:00", "meta": {"OBJECT_NAME": "STARLINK-35896", "OBJECT_ID": "2025-280D", "EPOCH": "2025-12-20T14:00:03.000384", "MEAN_MOTION": 15.52514451, "ECCENTRICITY": 0.00031947, "INCLINATION": 69.9998, "RA_OF_ASC_NODE": 176.9271, "ARG_OF_PERICENTER": 264.958, "MEAN_ANOMALY": 13.7899, "EPHEMERIS_TYPE": 0, "CLASSIFICATION_TYPE": "U", "NORAD_CAT_ID": 66824, "ELEMENT_SET_NO": 999, "REV_AT_EPOCH": 415, "BSTAR": 0.00031894029, "MEAN_MOTION_DOT": 0.00019499, "MEAN_MOTION_DDOT": 0}, "tle": {"line1": "1 66824U 25280D   25354.58336806  .00019499  00000+0  31894-3 0  9990", "line2": "2 66824  69.9998 176.9271 0003194 264.9580  13.7899 15.52514451  4152"}}, "geometry": {"type": "Point", "coordinates": [165.00547094456266, -28.41943259617002]}}, {"type": "Feature", "properties": {"norad_id": 66825, "name": "STARLINK-35476", "group": "last-30-days", "lat": -26.653437878611626, "lon": 165.83652341197143, "alt_km": 413.61127959079477, "timestamp": "2025-12-20T18:51:30.447352+00:00", "meta": {"OBJECT_NAME": "STARLINK-35476", "OBJECT_ID": "2025-280E", "EPOCH": "2025-12-20T14:00:03.000384", "MEAN_MOTION": 15.52513027, "ECCENTRICITY": 0.00030696, "INCLINATION": 69.9999, "RA_OF_ASC_NODE": 176.9247, "ARG_OF_PERICENTER": 268.8768, "MEAN_ANOMALY": 11.7901, "EPHEMERIS_TYPE": 0, "CLASSIFICATION_TYPE": "U", "NORAD_CAT_ID": 66825, "ELEMENT_SET_NO": 999, "REV_AT_EPOCH": 400, "BSTAR": 0.00031781256, "MEAN_MOTION_DOT": 0.00019428, "MEAN_MOTION_DDOT": 0}, "tle": {"line1": "1 66825U 25280E   25354.58336806  .00019428  00000+0  31781-3 0  9998", "line2": "2 66825  69.9999 176.9247 0003069 268.8768  11.7901 15.52513027  4003"}}, "geometry": {"type": "Point", "coordinates": [165.83652341197143, -26.653437878611626]}}, {"type": "Feature", "properties": {"norad_id": 66826, "name": "STARLINK-35898", "group": "last-30-days", "lat": -24.88139378705634, "lon": 166.6419327736036, "alt_km": 413.6325487281665, "timestamp": "2025-12-20T18:51:30.447365+00:00", "meta": {"OBJECT_NAME": "STARLINK-35898", "OBJECT_ID": "2025-280F", "EPOCH": "2025-12-20T14:00:03.000384", "MEAN_MOTION": 15.52511903, "ECCENTRICITY": 0.00032053, "INCLINATION": 70, "RA_OF_ASC_NODE": 176.9215, "ARG_OF_PERICENTER": 265.2018, "MEAN_ANOMALY": 17.38, "EPHEMERIS_TYPE": 0, "CLASSIFICATION_TYPE": "U", "NORAD_CAT_ID": 66826, "ELEMENT_SET_NO": 999, "REV_AT_EPOCH": 415, "BSTAR": 0.00037099605, "MEAN_MOTION_DOT": 0.00022716, "MEAN_MOTION_DDOT": 0}, "tle": {"line1": "1 66826U 25280F   25354.58336806  .00022716  00000+0  37100-3 0  9994", "line2": "2 66826  70.0000 176.9215 0003205 265.2018  17.3800 15.52511903  4153"}}, "geometry": {"type": "Point", "coordinates": [166.6419327736036, -24.88139378705634]}}, {"type": "Feature", "properties": {"norad_id": 66827, "name": "STARLINK-35959", "group": "last-30-days", "lat": -23.105561080527117, "lon": 167.4248331834474, "alt_km": 413.57310629397307, "timestamp": "2025-12-20T18:51:30.447375+00:00", "meta": {"OBJECT_NAME": "STARLINK-35959", "OBJECT_ID": "2025-280G", "EPOCH": "2025-12-20T14:00:03.000384", "MEAN_MOTION": 15.52510285, "ECCENTRICITY": 0.00031794, "INCLINATION": 69.9997, "RA_OF_ASC_NODE": 176.9191, "ARG_OF_PERICENTER": 265.1753, "MEAN_ANOMALY": 19.324, "EPHEMERIS_TYPE": 0, "CLASSIFICATION_TYPE": "U", "NORAD_CAT_ID": 66827, "ELEMENT_SET_NO": 999, "REV_AT_EPOCH": 415, "BSTAR": 0.00039729384, "MEAN_MOTION_DOT": 0.00024341, "MEAN_MOTION_DDOT": 0}, "tle": {"line1": "1 66827U 25280G   25354.58336806  .00024341  00000+0  39729-3 0  9990", "line2": "2 66827  69.9997 176.9191 0003179 265.1753  19.3240 15.52510285  4156"}}, "geometry": {"type": "Point", "coordinates": [167.4248331834474, -23.105561080527117]}}]}